<?xml version="1.0" encoding="UTF-8"?><q:quakeml xmlns="http://quakeml.org/xmlns/bed/1.2" xmlns:q="http://quakeml.org/xmlns/quakeml/1.2" xmlns:ingv="http://webservices.ingv.it/fdsnws/event/1"><eventParameters publicID="smi:webservices.ingv.it/fdsnws/event/1/query"><event publicID="smi:webservices.ingv.it/fdsnws/event/1/query?eventId=29794751"><type>earthquake</type><description><type>region name</type><text>5 km W Trani (BT)</text></description><preferredMagnitudeID>smi:webservices.ingv.it/fdsnws/event/1/query?magnitudeId=111725091</preferredMagnitudeID><preferredOriginID>smi:webservices.ingv.it/fdsnws/event/1/query?originId=104170521</preferredOriginID><creationInfo><agencyID>INGV</agencyID><author>hew10_mole#MOD_EQASSEMBLE</author><creationTime>2022-02-03T22:04:41</creationTime><ingv:id_locator>405047</ingv:id_locator></creationInfo><origin publicID="smi:webservices.ingv.it/fdsnws/event/1/query?originId=104170521"><evaluationMode>manual</evaluationMode><type>hypocenter</type><time><value>2022-02-03T22:04:16.670000</value><uncertainty>0.2</uncertainty></time><latitude><value>41.2653</value><uncertainty>0.0054</uncertainty></latitude><longitude><value>16.3548</value><uncertainty>0.0084</uncertainty></longitude><depth><value>7100</value><uncertainty>1100</uncertainty></depth><depthType>from location</depthType><originUncertainty><preferredDescription>uncertainty ellipse</preferredDescription><horizontalUncertainty>690.0</horizontalUncertainty><minHorizontalUncertainty>423</minHorizontalUncertainty><maxHorizontalUncertainty>690</maxHorizontalUncertainty><azimuthMaxHorizontalUncertainty>65</azimuthMaxHorizontalUncertainty><confidenceLevel>68</confidenceLevel></originUncertainty><quality><azimuthalGap>123</azimuthalGap><associatedPhaseCount>59</associatedPhaseCount><usedPhaseCount>59</usedPhaseCount><standardError>0.37</standardError><minimumDistance>0.23652</minimumDistance><maximumDistance>1.34898</maximumDistance><associatedStationCount>42</associatedStationCount><usedStationCount>42</usedStationCount></quality><evaluationStatus>reviewed</evaluationStatus><methodID>smi:webservices.ingv.it/fdsnws/event/1/query?methodId=1</methodID><earthModelID>smi:webservices.ingv.it/fdsnws/event/1/query?earthModelId=1</earthModelID><creationInfo><agencyID>INGV</agencyID><author>BULLETIN-INGV</author><version>1000</version><creationTime>2022-07-08T12:33:52</creationTime><ingv:quality>AC</ingv:quality></creationInfo><arrival publicID="smi:webservices.ingv.it/fdsnws/event/1/query?arrivalId=2030527181"><phase>S</phase><azimuth>131</azimuth><distance>0.7168</distance><timeResidual>0.21</timeResidual><timeWeight>66</timeWeight><pickID>smi:webservices.ingv.it/fdsnws/event/1/query?pickId=596634501</pickID><earthModelID>smi:webservices.ingv.it/fdsnws/event/1/query?earthModelId=1</earthModelID><takeoffAngle><value>50</value></takeoffAngle><creationInfo><agencyID>INGV</agencyID><author>BULLETIN-INGV</author><creationTime>2022-05-05T14:59:40</creationTime></creationInfo></arrival><arrival publicID="smi:webservices.ingv.it/fdsnws/event/1/query?arrivalId=2030527431"><phase>P</phase><azimuth>283</azimuth><distance>1.3490</distance><timeResidual>0.03</timeResidual><timeWeight>39</timeWeight><pickID>smi:webservices.ingv.it/fdsnws/event/1/query?pickId=596634671</pickID><earthModelID>smi:webservices.ingv.it/fdsnws/event/1/query?earthModelId=1</earthModelID><takeoffAngle><value>50</value></takeoffAngle><creationInfo><agencyID>INGV</agencyID><author>BULLETIN-INGV</author><creationTime>2022-05-05T14:59:41</creationTime></creationInfo></arrival><arrival publicID="smi:webservices.ingv.it/fdsnws/event/1/query?arrivalId=2030527141"><phase>S</phase><azimuth>310</azimuth><distance>0.6916</distance><timeResidual>0.63</timeResidual><timeWeight>59</timeWeight><pickID>smi:webservices.ingv.it/fdsnws/event/1/query?pickId=596636281</pickID><earthModelID>smi:webservices.ingv.it/fdsnws/event/1/query?earthModelId=1</earthModelID><takeoffAngle><value>50</value></takeoffAngle><creationInfo><agencyID>INGV</agencyID><author>BULLETIN-INGV</author><creationTime>2022-05-05T14:59:40</creationTime></creationInfo></arrival><arrival publicID="smi:webservices.ingv.it/fdsnws/event/1/query?arrivalId=2030527161"><phase>S</phase><azimuth>332</azimuth><distance>0.7141</distance><timeResidual>0.49</timeResidual><timeWeight>41</timeWeight><pickID>smi:webservices.ingv.it/fdsnws/event/1/query?pickId=596634521</pickID><earthModelID>smi:webservices.ingv.it/fdsnws/event/1/query?earthModelId=1</earthModelID><takeoffAngle><value>50</value></takeoffAngle><creationInfo><agencyID>INGV</agencyID><author>BULLETIN-INGV</author><creationTime>2022-05-05T14:59:40</creationTime></creationInfo></arrival><arrival publicID="smi:webservices.ingv.it/fdsnws/event/1/query?arrivalId=2030527101"><phase>S</phase><azimuth>305</azimuth><distance>0.6871</distance><timeResidual>-0.31</timeResidual><timeWeight>65</timeWeight><pickID>smi:webservices.ingv.it/fdsnws/event/1/query?pickId=596962301</pickID><earthModelID>smi:webservices.ingv.it/fdsnws/event/1/query?earthModelId=1</earthModelID><takeoffAngle><value>50</value></takeoffAngle><creationInfo><agencyID>INGV</agencyID><author>BULLETIN-INGV</author><creationTime>2022-05-05T14:59:40</creationTime></creationInfo></arrival><arrival publicID="smi:webservices.ingv.it/fdsnws/event/1/query?arrivalId=2030527061"><phase>S</phase><azimuth>317</azimuth><distance>0.6691</distance><timeResidual>0.17</timeResidual><timeWeight>67</timeWeight><pickID>smi:webservices.ingv.it/fdsnws/event/1/query?pickId=596962271</pickID><earthModelID>smi:webservices.ingv.it/fdsnws/event/1/query?earthModelId=1</earthModelID><takeoffAngle><value>50</value></takeoffAngle><creationInfo><agencyID>INGV</agencyID><author>BULLETIN-INGV</author><creationTime>2022-05-05T14:59:40</creationTime></creationInfo></arrival><arrival publicID="smi:webservices.ingv.it/fdsnws/event/1/query?arrivalId=2030527081"><phase>S</phase><azimuth>174</azimuth><distance>0.6637</distance><timeResidual>0.03</timeResidual><timeWeight>46</timeWeight><pickID>smi:webservices.ingv.it/fdsnws/event/1/query?pickId=596634461</pickID><earthModelID>smi:webservices.ingv.it/fdsnws/event/1/query?earthModelId=1</earthModelID><takeoffAngle><value>50</value></takeoffAngle><creationInfo><agencyID>INGV</agencyID><author>BULLETIN-INGV</author><creationTime>2022-05-05T14:59:40</creationTime></creationInfo></arrival><arrival publicID="smi:webservices.ingv.it/fdsnws/event/1/query?arrivalId=2030527041"><phase>S</phase><azimuth>348</azimuth><distance>0.6286</distance><timeResidual>1</timeResidual><timeWeight>34</timeWeight><pickID>smi:webservices.ingv.it/fdsnws/event/1/query?pickId=596962261</pickID><earthModelID>smi:webservices.ingv.it/fdsnws/event/1/query?earthModelId=1</earthModelID><takeoffAngle><value>50</value></takeoffAngle><creationInfo><agencyID>INGV</agencyID><author>BULLETIN-INGV</author><creationTime>2022-05-05T14:59:40</creationTime></creationInfo></arrival><arrival publicID="smi:webservices.ingv.it/fdsnws/event/1/query?arrivalId=2030527121"><phase>S</phase><azimuth>157</azimuth><distance>0.6700</distance><timeResidual>-0.51</timeResidual><timeWeight>41</timeWeight><pickID>smi:webservices.ingv.it/fdsnws/event/1/query?pickId=596634481</pickID><earthModelID>smi:webservices.ingv.it/fdsnws/event/1/query?earthModelId=1</earthModelID><takeoffAngle><value>50</value></takeoffAngle><creationInfo><agencyID>INGV</agencyID><author>BULLETIN-INGV</author><creationTime>2022-05-05T14:59:40</creationTime></creationInfo></arrival><arrival publicID="smi:webservices.ingv.it/fdsnws/event/1/query?arrivalId=2030527421"><phase>P</phase><azimuth>283</azimuth><distance>1.1107</distance><timeResidual>0.59</timeResidual><timeWeight>18</timeWeight><pickID>smi:webservices.ingv.it/fdsnws/event/1/query?pickId=596634661</pickID><earthModelID>smi:webservices.ingv.it/fdsnws/event/1/query?earthModelId=1</earthModelID><takeoffAngle><value>50</value></takeoffAngle><creationInfo><agencyID>INGV</agencyID><author>BULLETIN-INGV</author><creationTime>2022-05-05T14:59:41</creationTime></creationInfo></arrival><arrival publicID="smi:webservices.ingv.it/fdsnws/event/1/query?arrivalId=2030527401"><phase>P</phase><azimuth>324</azimuth><distance>1.0639</distance><timeResidual>0.8</timeResidual><timeWeight>34</timeWeight><pickID>smi:webservices.ingv.it/fdsnws/event/1/query?pickId=596634641</pickID><earthModelID>smi:webservices.ingv.it/fdsnws/event/1/query?earthModelId=1</earthModelID><takeoffAngle><value>50</value></takeoffAngle><creationInfo><agencyID>INGV</agencyID><author>BULLETIN-INGV</author><creationTime>2022-05-05T14:59:40</creationTime></creationInfo></arrival><arrival publicID="smi:webservices.ingv.it/fdsnws/event/1/query?arrivalId=2030527021"><phase>S</phase><azimuth>213</azimuth><distance>0.5702</distance><timeResidual>0.23</timeResidual><timeWeight>45</timeWeight><pickID>smi:webservices.ingv.it/fdsnws/event/1/query?pickId=596634381</pickID><earthModelID>smi:webservices.ingv.it/fdsnws/event/1/query?earthModelId=1</earthModelID><takeoffAngle><value>50</value></takeoffAngle><creationInfo><agencyID>INGV</agencyID><author>BULLETIN-INGV</author><creationTime>2022-05-05T14:59:40</creationTime></creationInfo></arrival><arrival publicID="smi:webservices.ingv.it/fdsnws/event/1/query?arrivalId=2030527411"><phase>P</phase><azimuth>199</azimuth><distance>1.1439</distance><timeResidual>-0.27</timeResidual><timeWeight>59</timeWeight><pickID>smi:webservices.ingv.it/fdsnws/event/1/query?pickId=596634631</pickID><earthModelID>smi:webservices.ingv.it/fdsnws/event/1/query?earthModelId=1</earthModelID><takeoffAngle><value>50</value></takeoffAngle><creationInfo><agencyID>INGV</agencyID><author>BULLETIN-INGV</author><creationTime>2022-05-05T14:59:40</creationTime></creationInfo></arrival><arrival publicID="smi:webservices.ingv.it/fdsnws/event/1/query?arrivalId=2030526981"><phase>S</phase><azimuth>323</azimuth><distance>0.5567</distance><timeResidual>0.48</timeResidual><timeWeight>43</timeWeight><pickID>smi:webservices.ingv.it/fdsnws/event/1/query?pickId=596634361</pickID><earthModelID>smi:webservices.ingv.it/fdsnws/event/1/query?earthModelId=1</earthModelID><takeoffAngle><value>50</value></takeoffAngle><creationInfo><agencyID>INGV</agencyID><author>BULLETIN-INGV</author><creationTime>2022-05-05T14:59:40</creationTime></creationInfo></arrival><arrival publicID="smi:webservices.ingv.it/fdsnws/event/1/query?arrivalId=2030527001"><phase>S</phase><azimuth>307</azimuth><distance>0.5945</distance><timeResidual>-1.08</timeResidual><timeWeight>49</timeWeight><pickID>smi:webservices.ingv.it/fdsnws/event/1/query?pickId=596962231</pickID><earthModelID>smi:webservices.ingv.it/fdsnws/event/1/query?earthModelId=1</earthModelID><takeoffAngle><value>50</value></takeoffAngle><creationInfo><agencyID>INGV</agencyID><author>BULLETIN-INGV</author><creationTime>2022-05-05T14:59:40</creationTime></creationInfo></arrival><arrival publicID="smi:webservices.ingv.it/fdsnws/event/1/query?arrivalId=2030527381"><phase>P</phase><azimuth>205</azimuth><distance>1.0981</distance><timeResidual>-0.6</timeResidual><timeWeight>55</timeWeight><pickID>smi:webservices.ingv.it/fdsnws/event/1/query?pickId=596634621</pickID><earthModelID>smi:webservices.ingv.it/fdsnws/event/1/query?earthModelId=1</earthModelID><takeoffAngle><value>50</value></takeoffAngle><creationInfo><agencyID>INGV</agencyID><author>BULLETIN-INGV</author><creationTime>2022-05-05T14:59:40</creationTime></creationInfo></arrival><arrival publicID="smi:webservices.ingv.it/fdsnws/event/1/query?arrivalId=2030527361"><phase>P</phase><azimuth>296</azimuth><distance>1.0189</distance><timeResidual>0.35</timeResidual><timeWeight>20</timeWeight><pickID>smi:webservices.ingv.it/fdsnws/event/1/query?pickId=596634601</pickID><earthModelID>smi:webservices.ingv.it/fdsnws/event/1/query?earthModelId=1</earthModelID><takeoffAngle><value>50</value></takeoffAngle><creationInfo><agencyID>INGV</agencyID><author>BULLETIN-INGV</author><creationTime>2022-05-05T14:59:40</creationTime></creationInfo></arrival><arrival publicID="smi:webservices.ingv.it/fdsnws/event/1/query?arrivalId=2030527391"><phase>P</phase><azimuth>226</azimuth><distance>1.1098</distance><timeResidual>-0.71</timeResidual><timeWeight>35</timeWeight><pickID>smi:webservices.ingv.it/fdsnws/event/1/query?pickId=596634651</pickID><earthModelID>smi:webservices.ingv.it/fdsnws/event/1/query?earthModelId=1</earthModelID><takeoffAngle><value>50</value></takeoffAngle><creationInfo><agencyID>INGV</agencyID><author>BULLETIN-INGV</author><creationTime>2022-05-05T14:59:40</creationTime></creationInfo></arrival><arrival publicID="smi:webservices.ingv.it/fdsnws/event/1/query?arrivalId=2030527371"><phase>P</phase><azimuth>136</azimuth><distance>1.0198</distance><timeResidual>0.35</timeResidual><timeWeight>40</timeWeight><pickID>smi:webservices.ingv.it/fdsnws/event/1/query?pickId=596634611</pickID><earthModelID>smi:webservices.ingv.it/fdsnws/event/1/query?earthModelId=1</earthModelID><takeoffAngle><value>50</value></takeoffAngle><creationInfo><agencyID>INGV</agencyID><author>BULLETIN-INGV</author><creationTime>2022-05-05T14:59:40</creationTime></creationInfo></arrival><arrival publicID="smi:webservices.ingv.it/fdsnws/event/1/query?arrivalId=2030527351"><phase>P</phase><azimuth>204</azimuth><distance>1.0288</distance><timeResidual>0</timeResidual><timeWeight>43</timeWeight><pickID>smi:webservices.ingv.it/fdsnws/event/1/query?pickId=596634591</pickID><earthModelID>smi:webservices.ingv.it/fdsnws/event/1/query?earthModelId=1</earthModelID><takeoffAngle><value>50</value></takeoffAngle><creationInfo><agencyID>INGV</agencyID><author>BULLETIN-INGV</author><creationTime>2022-05-05T14:59:40</creationTime></creationInfo></arrival><arrival publicID="smi:webservices.ingv.it/fdsnws/event/1/query?arrivalId=2030527321"><phase>P</phase><azimuth>176</azimuth><distance>0.8858</distance><timeResidual>0.27</timeResidual><timeWeight>42</timeWeight><pickID>smi:webservices.ingv.it/fdsnws/event/1/query?pickId=596634571</pickID><earthModelID>smi:webservices.ingv.it/fdsnws/event/1/query?earthModelId=1</earthModelID><takeoffAngle><value>50</value></takeoffAngle><creationInfo><agencyID>INGV</agencyID><author>BULLETIN-INGV</author><creationTime>2022-05-05T14:59:40</creationTime></creationInfo></arrival><arrival publicID="smi:webservices.ingv.it/fdsnws/event/1/query?arrivalId=2030527341"><phase>P</phase><azimuth>258</azimuth><distance>0.8669</distance><timeResidual>1.01</timeResidual><timeWeight>32</timeWeight><pickID>smi:webservices.ingv.it/fdsnws/event/1/query?pickId=596636241</pickID><earthModelID>smi:webservices.ingv.it/fdsnws/event/1/query?earthModelId=1</earthModelID><takeoffAngle><value>50</value></takeoffAngle><creationInfo><agencyID>INGV</agencyID><author>BULLETIN-INGV</author><creationTime>2022-05-05T14:59:40</creationTime></creationInfo></arrival><arrival publicID="smi:webservices.ingv.it/fdsnws/event/1/query?arrivalId=2030527331"><phase>P</phase><azimuth>255</azimuth><distance>0.8741</distance><timeResidual>0.83</timeResidual><timeWeight>17</timeWeight><pickID>smi:webservices.ingv.it/fdsnws/event/1/query?pickId=596636201</pickID><earthModelID>smi:webservices.ingv.it/fdsnws/event/1/query?earthModelId=1</earthModelID><takeoffAngle><value>50</value></takeoffAngle><creationInfo><agencyID>INGV</agencyID><author>BULLETIN-INGV</author><creationTime>2022-05-05T14:59:40</creationTime></creationInfo></arrival><arrival publicID="smi:webservices.ingv.it/fdsnws/event/1/query?arrivalId=2030527311"><phase>P</phase><azimuth>136</azimuth><distance>0.8687</distance><timeResidual>0.41</timeResidual><timeWeight>41</timeWeight><pickID>smi:webservices.ingv.it/fdsnws/event/1/query?pickId=596636321</pickID><earthModelID>smi:webservices.ingv.it/fdsnws/event/1/query?earthModelId=1</earthModelID><takeoffAngle><value>50</value></takeoffAngle><creationInfo><agencyID>INGV</agencyID><author>BULLETIN-INGV</author><creationTime>2022-05-05T14:59:40</creationTime></creationInfo></arrival><arrival publicID="smi:webservices.ingv.it/fdsnws/event/1/query?arrivalId=2030526961"><phase>S</phase><azimuth>318</azimuth><distance>0.4964</distance><timeResidual>-1.05</timeResidual><timeWeight>51</timeWeight><pickID>smi:webservices.ingv.it/fdsnws/event/1/query?pickId=596962211</pickID><earthModelID>smi:webservices.ingv.it/fdsnws/event/1/query?earthModelId=1</earthModelID><takeoffAngle><value>50</value></takeoffAngle><creationInfo><agencyID>INGV</agencyID><author>BULLETIN-INGV</author><creationTime>2022-05-05T14:59:40</creationTime></creationInfo></arrival><arrival publicID="smi:webservices.ingv.it/fdsnws/event/1/query?arrivalId=2030527281"><phase>P</phase><azimuth>243</azimuth><distance>0.8022</distance><timeResidual>1.06</timeResidual><timeWeight>32</timeWeight><pickID>smi:webservices.ingv.it/fdsnws/event/1/query?pickId=596636301</pickID><earthModelID>smi:webservices.ingv.it/fdsnws/event/1/query?earthModelId=1</earthModelID><takeoffAngle><value>50</value></takeoffAngle><creationInfo><agencyID>INGV</agencyID><author>BULLETIN-INGV</author><creationTime>2022-05-05T14:59:40</creationTime></creationInfo></arrival><arrival publicID="smi:webservices.ingv.it/fdsnws/event/1/query?arrivalId=2030527291"><phase>P</phase><azimuth>228</azimuth><distance>0.8544</distance><timeResidual>0.45</timeResidual><timeWeight>41</timeWeight><pickID>smi:webservices.ingv.it/fdsnws/event/1/query?pickId=596634581</pickID><earthModelID>smi:webservices.ingv.it/fdsnws/event/1/query?earthModelId=1</earthModelID><takeoffAngle><value>50</value></takeoffAngle><creationInfo><agencyID>INGV</agencyID><author>BULLETIN-INGV</author><creationTime>2022-05-05T14:59:40</creationTime></creationInfo></arrival><arrival publicID="smi:webservices.ingv.it/fdsnws/event/1/query?arrivalId=2030527261"><phase>P</phase><azimuth>211</azimuth><distance>0.8112</distance><timeResidual>0.52</timeResidual><timeWeight>40</timeWeight><pickID>smi:webservices.ingv.it/fdsnws/event/1/query?pickId=596634561</pickID><earthModelID>smi:webservices.ingv.it/fdsnws/event/1/query?earthModelId=1</earthModelID><takeoffAngle><value>50</value></takeoffAngle><creationInfo><agencyID>INGV</agencyID><author>BULLETIN-INGV</author><creationTime>2022-05-05T14:59:40</creationTime></creationInfo></arrival><arrival publicID="smi:webservices.ingv.it/fdsnws/event/1/query?arrivalId=2030527271"><phase>P</phase><azimuth>288</azimuth><distance>0.8040</distance><timeResidual>0.7</timeResidual><timeWeight>19</timeWeight><pickID>smi:webservices.ingv.it/fdsnws/event/1/query?pickId=596634541</pickID><earthModelID>smi:webservices.ingv.it/fdsnws/event/1/query?earthModelId=1</earthModelID><takeoffAngle><value>50</value></takeoffAngle><creationInfo><agencyID>INGV</agencyID><author>BULLETIN-INGV</author><creationTime>2022-05-05T14:59:40</creationTime></creationInfo></arrival><arrival publicID="smi:webservices.ingv.it/fdsnws/event/1/query?arrivalId=2030527301"><phase>P</phase><azimuth>232</azimuth><distance>0.8274</distance><timeResidual>1.04</timeResidual><timeWeight>32</timeWeight><pickID>smi:webservices.ingv.it/fdsnws/event/1/query?pickId=596636291</pickID><earthModelID>smi:webservices.ingv.it/fdsnws/event/1/query?earthModelId=1</earthModelID><takeoffAngle><value>50</value></takeoffAngle><creationInfo><agencyID>INGV</agencyID><author>BULLETIN-INGV</author><creationTime>2022-05-05T14:59:40</creationTime></creationInfo></arrival><arrival publicID="smi:webservices.ingv.it/fdsnws/event/1/query?arrivalId=2030527251"><phase>P</phase><azimuth>197</azimuth><distance>0.7761</distance><timeResidual>0.88</timeResidual><timeWeight>35</timeWeight><pickID>smi:webservices.ingv.it/fdsnws/event/1/query?pickId=596634551</pickID><earthModelID>smi:webservices.ingv.it/fdsnws/event/1/query?earthModelId=1</earthModelID><takeoffAngle><value>50</value></takeoffAngle><creationInfo><agencyID>INGV</agencyID><author>BULLETIN-INGV</author><creationTime>2022-05-05T14:59:40</creationTime></creationInfo></arrival><arrival publicID="smi:webservices.ingv.it/fds