<?xml version="1.0" encoding="UTF-8"?><q:quakeml xmlns="http://quakeml.org/xmlns/bed/1.2" xmlns:q="http://quakeml.org/xmlns/quakeml/1.2" xmlns:ingv="http://webservices.ingv.it/fdsnws/event/1"><eventParameters publicID="smi:webservices.ingv.it/fdsnws/event/1/query"><event publicID="smi:webservices.ingv.it/fdsnws/event/1/query?eventId=34440341"><type>earthquake</type><description><type>region name</type><text>2 km E Norcia (PG)</text></description><preferredMagnitudeID>smi:webservices.ingv.it/fdsnws/event/1/query?magnitudeId=130623531</preferredMagnitudeID><preferredOriginID>smi:webservices.ingv.it/fdsnws/event/1/query?originId=121350241</preferredOriginID><creationInfo><agencyID>INGV</agencyID><author>hew10_mole#MOD_EQASSEMBLE</author><creationTime>2023-03-22T21:00:57</creationTime><ingv:id_locator>493141</ingv:id_locator></creationInfo><origin publicID="smi:webservices.ingv.it/fdsnws/event/1/query?originId=121350241"><evaluationMode>manual</evaluationMode><type>hypocenter</type><time><value>2023-03-22T21:00:39.650000</value><uncertainty>0.04</uncertainty></time><latitude><value>42.795</value><uncertainty>0.0018</uncertainty></latitude><longitude><value>13.123</value><uncertainty>0.0037</uncertainty></longitude><depth><value>9400</value><uncertainty>200</uncertainty></depth><depthType>from location</depthType><originUncertainty><preferredDescription>uncertainty ellipse</preferredDescription><horizontalUncertainty>240.0</horizontalUncertainty><minHorizontalUncertainty>222</minHorizontalUncertainty><maxHorizontalUncertainty>240</maxHorizontalUncertainty><azimuthMaxHorizontalUncertainty>74</azimuthMaxHorizontalUncertainty><confidenceLevel>68</confidenceLevel></originUncertainty><quality><azimuthalGap>46</azimuthalGap><associatedPhaseCount>57</associatedPhaseCount><usedPhaseCount>57</usedPhaseCount><standardError>0.22</standardError><minimumDistance>0.03867</minimumDistance><maximumDistance>0.71496</maximumDistance><associatedStationCount>29</associatedStationCount><usedStationCount>29</usedStationCount></quality><evaluationStatus>reviewed</evaluationStatus><methodID>smi:webservices.ingv.it/fdsnws/event/1/query?methodId=1</methodID><earthModelID>smi:webservices.ingv.it/fdsnws/event/1/query?earthModelId=1</earthModelID><creationInfo><agencyID>INGV</agencyID><author>BULLETIN-INGV</author><version>1000</version><creationTime>2024-03-01T17:18:16</creationTime><ingv:quality>AA</ingv:quality></creationInfo><arrival publicID="smi:webservices.ingv.it/fdsnws/event/1/query?arrivalId=2377182711"><phase>S</phase><azimuth>349</azimuth><distance>0.7150</distance><timeResidual>0.44</timeResidual><timeWeight>20</timeWeight><pickID>smi:webservices.ingv.it/fdsnws/event/1/query?pickId=693304821</pickID><earthModelID>smi:webservices.ingv.it/fdsnws/event/1/query?earthModelId=1</earthModelID><takeoffAngle><value>50</value></takeoffAngle><creationInfo><agencyID>INGV</agencyID><author>BULLETIN-INGV</author><creationTime>2023-09-22T09:27:09</creationTime></creationInfo></arrival><arrival publicID="smi:webservices.ingv.it/fdsnws/event/1/query?arrivalId=2377182691"><phase>S</phase><azimuth>339</azimuth><distance>0.6871</distance><timeResidual>0.73</timeResidual><timeWeight>36</timeWeight><pickID>smi:webservices.ingv.it/fdsnws/event/1/query?pickId=693304811</pickID><earthModelID>smi:webservices.ingv.it/fdsnws/event/1/query?earthModelId=1</earthModelID><takeoffAngle><value>50</value></takeoffAngle><creationInfo><agencyID>INGV</agencyID><author>BULLETIN-INGV</author><creationTime>2023-09-22T09:27:09</creationTime></creationInfo></arrival><arrival publicID="smi:webservices.ingv.it/fdsnws/event/1/query?arrivalId=2377182651"><phase>S</phase><azimuth>318</azimuth><distance>0.5261</distance><timeResidual>-0.07</timeResidual><timeWeight>45</timeWeight><pickID>smi:webservices.ingv.it/fdsnws/event/1/query?pickId=693304791</pickID><earthModelID>smi:webservices.ingv.it/fdsnws/event/1/query?earthModelId=1</earthModelID><takeoffAngle><value>50</value></takeoffAngle><creationInfo><agencyID>INGV</agencyID><author>BULLETIN-INGV</author><creationTime>2023-09-22T09:27:09</creationTime></creationInfo></arrival><arrival publicID="smi:webservices.ingv.it/fdsnws/event/1/query?arrivalId=2377182671"><phase>S</phase><azimuth>358</azimuth><distance>0.5342</distance><timeResidual>0.19</timeResidual><timeWeight>44</timeWeight><pickID>smi:webservices.ingv.it/fdsnws/event/1/query?pickId=693304801</pickID><earthModelID>smi:webservices.ingv.it/fdsnws/event/1/query?earthModelId=1</earthModelID><takeoffAngle><value>50</value></takeoffAngle><creationInfo><agencyID>INGV</agencyID><author>BULLETIN-INGV</author><creationTime>2023-09-22T09:27:09</creationTime></creationInfo></arrival><arrival publicID="smi:webservices.ingv.it/fdsnws/event/1/query?arrivalId=2377182631"><phase>S</phase><azimuth>136</azimuth><distance>0.4757</distance><timeResidual>-0.37</timeResidual><timeWeight>43</timeWeight><pickID>smi:webservices.ingv.it/fdsnws/event/1/query?pickId=693304781</pickID><earthModelID>smi:webservices.ingv.it/fdsnws/event/1/query?earthModelId=1</earthModelID><takeoffAngle><value>50</value></takeoffAngle><creationInfo><agencyID>INGV</agencyID><author>BULLETIN-INGV</author><creationTime>2023-09-22T09:27:09</creationTime></creationInfo></arrival><arrival publicID="smi:webservices.ingv.it/fdsnws/event/1/query?arrivalId=2377182591"><phase>S</phase><azimuth>271</azimuth><distance>0.4056</distance><timeResidual>0.5</timeResidual><timeWeight>42</timeWeight><pickID>smi:webservices.ingv.it/fdsnws/event/1/query?pickId=693304761</pickID><earthModelID>smi:webservices.ingv.it/fdsnws/event/1/query?earthModelId=1</earthModelID><takeoffAngle><value>50</value></takeoffAngle><creationInfo><agencyID>INGV</agencyID><author>BULLETIN-INGV</author><creationTime>2023-09-22T09:27:09</creationTime></creationInfo></arrival><arrival publicID="smi:webservices.ingv.it/fdsnws/event/1/query?arrivalId=2377182771"><phase>S</phase><azimuth>34</azimuth><distance>0.3633</distance><timeResidual>0.91</timeResidual><timeWeight>36</timeWeight><pickID>smi:webservices.ingv.it/fdsnws/event/1/query?pickId=693304881</pickID><earthModelID>smi:webservices.ingv.it/fdsnws/event/1/query?earthModelId=1</earthModelID><takeoffAngle><value>50</value></takeoffAngle><creationInfo><agencyID>INGV</agencyID><author>BULLETIN-INGV</author><creationTime>2023-09-22T09:27:09</creationTime></creationInfo></arrival><arrival publicID="smi:webservices.ingv.it/fdsnws/event/1/query?arrivalId=2377182611"><phase>S</phase><azimuth>306</azimuth><distance>0.4200</distance><timeResidual>-0.44</timeResidual><timeWeight>43</timeWeight><pickID>smi:webservices.ingv.it/fdsnws/event/1/query?pickId=693304771</pickID><earthModelID>smi:webservices.ingv.it/fdsnws/event/1/query?earthModelId=1</earthModelID><takeoffAngle><value>50</value></takeoffAngle><creationInfo><agencyID>INGV</agencyID><author>BULLETIN-INGV</author><creationTime>2023-09-22T09:27:09</creationTime></creationInfo></arrival><arrival publicID="smi:webservices.ingv.it/fdsnws/event/1/query?arrivalId=2377182701"><phase>P</phase><azimuth>349</azimuth><distance>0.7150</distance><timeResidual>0.44</timeResidual><timeWeight>40</timeWeight><pickID>smi:webservices.ingv.it/fdsnws/event/1/query?pickId=693304031</pickID><earthModelID>smi:webservices.ingv.it/fdsnws/event/1/query?earthModelId=1</earthModelID><takeoffAngle><value>50</value></takeoffAngle><creationInfo><agencyID>INGV</agencyID><author>BULLETIN-INGV</author><creationTime>2023-09-22T09:27:09</creationTime></creationInfo></arrival><arrival publicID="smi:webservices.ingv.it/fdsnws/event/1/query?arrivalId=2377182571"><phase>S</phase><azimuth>116</azimuth><distance>0.3930</distance><timeResidual>-0.23</timeResidual><timeWeight>45</timeWeight><pickID>smi:webservices.ingv.it/fdsnws/event/1/query?pickId=693304751</pickID><earthModelID>smi:webservices.ingv.it/fdsnws/event/1/query?earthModelId=1</earthModelID><takeoffAngle><value>50</value></takeoffAngle><creationInfo><agencyID>INGV</agencyID><author>BULLETIN-INGV</author><creationTime>2023-09-22T09:27:09</creationTime></creationInfo></arrival><arrival publicID="smi:webservices.ingv.it/fdsnws/event/1/query?arrivalId=2377182681"><phase>P</phase><azimuth>339</azimuth><distance>0.6871</distance><timeResidual>0.31</timeResidual><timeWeight>42</timeWeight><pickID>smi:webservices.ingv.it/fdsnws/event/1/query?pickId=693304011</pickID><earthModelID>smi:webservices.ingv.it/fdsnws/event/1/query?earthModelId=1</earthModelID><takeoffAngle><value>50</value></takeoffAngle><creationInfo><agencyID>INGV</agencyID><author>BULLETIN-INGV</author><creationTime>2023-09-22T09:27:09</creationTime></creationInfo></arrival><arrival publicID="smi:webservices.ingv.it/fdsnws/event/1/query?arrivalId=2377182541"><phase>S</phase><azimuth>341</azimuth><distance>0.3372</distance><timeResidual>-0.36</timeResidual><timeWeight>44</timeWeight><pickID>smi:webservices.ingv.it/fdsnws/event/1/query?pickId=693304741</pickID><earthModelID>smi:webservices.ingv.it/fdsnws/event/1/query?earthModelId=1</earthModelID><takeoffAngle><value>50</value></takeoffAngle><creationInfo><agencyID>INGV</agencyID><author>BULLETIN-INGV</author><creationTime>2023-09-22T09:27:09</creationTime></creationInfo></arrival><arrival publicID="smi:webservices.ingv.it/fdsnws/event/1/query?arrivalId=2377182751"><phase>S</phase><azimuth>52</azimuth><distance>0.3130</distance><timeResidual>0.57</timeResidual><timeWeight>42</timeWeight><pickID>smi:webservices.ingv.it/fdsnws/event/1/query?pickId=693304861</pickID><earthModelID>smi:webservices.ingv.it/fdsnws/event/1/query?earthModelId=1</earthModelID><takeoffAngle><value>50</value></takeoffAngle><creationInfo><agencyID>INGV</agencyID><author>BULLETIN-INGV</author><creationTime>2023-09-22T09:27:09</creationTime></creationInfo></arrival><arrival publicID="smi:webservices.ingv.it/fdsnws/event/1/query?arrivalId=2377182501"><phase>S</phase><azimuth>167</azimuth><distance>0.2941</distance><timeResidual>-0.19</timeResidual><timeWeight>69</timeWeight><pickID>smi:webservices.ingv.it/fdsnws/event/1/query?pickId=693304721</pickID><earthModelID>smi:webservices.ingv.it/fdsnws/event/1/query?earthModelId=1</earthModelID><takeoffAngle><value>50</value></takeoffAngle><creationInfo><agencyID>INGV</agencyID><author>BULLETIN-INGV</author><creationTime>2023-09-22T09:27:09</creationTime></creationInfo></arrival><arrival publicID="smi:webservices.ingv.it/fdsnws/event/1/query?arrivalId=2377182731"><phase>S</phase><azimuth>141</azimuth><distance>0.3336</distance><timeResidual>-0.48</timeResidual><timeWeight>43</timeWeight><pickID>smi:webservices.ingv.it/fdsnws/event/1/query?pickId=693304841</pickID><earthModelID>smi:webservices.ingv.it/fdsnws/event/1/query?earthModelId=1</earthModelID><takeoffAngle><value>50</value></takeoffAngle><creationInfo><agencyID>INGV</agencyID><author>BULLETIN-INGV</author><creationTime>2023-09-22T09:27:09</creationTime></creationInfo></arrival><arrival publicID="smi:webservices.ingv.it/fdsnws/event/1/query?arrivalId=2377182521"><phase>S</phase><azimuth>30</azimuth><distance>0.3094</distance><timeResidual>0.25</timeResidual><timeWeight>68</timeWeight><pickID>smi:webservices.ingv.it/fdsnws/event/1/query?pickId=693304731</pickID><earthModelID>smi:webservices.ingv.it/fdsnws/event/1/query?earthModelId=1</earthModelID><takeoffAngle><value>50</value></takeoffAngle><creationInfo><agencyID>INGV</agencyID><author>BULLETIN-INGV</author><creationTime>2023-09-22T09:27:09</creationTime></creationInfo></arrival><arrival publicID="smi:webservices.ingv.it/fdsnws/event/1/query?arrivalId=2377182481"><phase>S</phase><azimuth>11</azimuth><distance>0.3022</distance><timeResidual>-0.35</timeResidual><timeWeight>67</timeWeight><pickID>smi:webservices.ingv.it/fdsnws/event/1/query?pickId=693304711</pickID><earthModelID>smi:webservices.ingv.it/fdsnws/event/1/query?earthModelId=1</earthModelID><takeoffAngle><value>50</value></takeoffAngle><creationInfo><agencyID>INGV</agencyID><author>BULLETIN-INGV</author><creationTime>2023-09-22T09:27:09</creationTime></creationInfo></arrival><arrival publicID="smi:webservices.ingv.it/fdsnws/event/1/query?arrivalId=2377182661"><phase>P</phase><azimuth>358</azimuth><distance>0.5342</distance><timeResidual>0.04</timeResidual><timeWeight>68</timeWeight><pickID>smi:webservices.ingv.it/fdsnws/event/1/query?pickId=693303991</pickID><earthModelID>smi:webservices.ingv.it/fdsnws/event/1/query?earthModelId=1</earthModelID><takeoffAngle><value>50</value></takeoffAngle><creationInfo><agencyID>INGV</agencyID><author>BULLETIN-INGV</author><creationTime>2023-09-22T09:27:09</creationTime></creationInfo></arrival><arrival publicID="smi:webservices.ingv.it/fdsnws/event/1/query?arrivalId=2377182461"><phase>S</phase><azimuth>323</azimuth><distance>0.2635</distance><timeResidual>-0.19</timeResidual><timeWeight>70</timeWeight><pickID>smi:webservices.ingv.it/fdsnws/event/1/query?pickId=693304701</pickID><earthModelID>smi:webservices.ingv.it/fdsnws/event/1/query?earthModelId=1</earthModelID><takeoffAngle><value>50</value></takeoffAngle><creationInfo><agencyID>INGV</agencyID><author>BULLETIN-INGV</author><creationTime>2023-09-22T09:27:09</creationTime></creationInfo></arrival><arrival publicID="smi:webservices.ingv.it/fdsnws/event/1/query?arrivalId=2377182641"><phase>P</phase><azimuth>318</azimuth><distance>0.5261</distance><timeResidual>-0.11</timeResidual><timeWeight>67</timeWeight><pickID>smi:webservices.ingv.it/fdsnws/event/1/query?pickId=693303971</pickID><earthModelID>smi:webservices.ingv.it/fdsnws/event/1/query?earthModelId=1</earthModelID><takeoffAngle><value>50</value></takeoffAngle><creationInfo><agencyID>INGV</agencyID><author>BULLETIN-INGV</author><creationTime>2023-09-22T09:27:09</creationTime></creationInfo></arrival><arrival publicID="smi:webservices.ingv.it/fdsnws/event/1/query?arrivalId=2377182441"><phase>S</phase><azimuth>354</azimuth><distance>0.2428</distance><timeResidual>-0.56</timeResidual><timeWeight>64</timeWeight><pickID>smi:webservices.ingv.it/fdsnws/event/1/query?pickId=693303771</pickID><earthModelID>smi:webservices.ingv.it/fdsnws/event/1/query?earthModelId=1</earthModelID><takeoffAngle><value>109</value></takeoffAngle><creationInfo><agencyID>INGV</agencyID><author>BULLETIN-INGV</author><creationTime>2023-09-22T09:27:09</creationTime></creationInfo></arrival><arrival publicID="smi:webservices.ingv.it/fdsnws/event/1/query?arrivalId=2377182621"><phase>P</phase><azimuth>136</azimuth><distance>0.4757</distance><timeResidual>-0.38</timeResidual><timeWeight>64</timeWeight><pickID>smi:webservices.ingv.it/fdsnws/event/1/query?pickId=693303951</pickID><earthModelID>smi:webservices.ingv.it/fdsnws/event/1/query?earthModelId=1</earthModelID><takeoffAngle><value>50</value></takeoffAngle><creationInfo><agencyID>INGV</agencyID><author>BULLETIN-INGV</author><creationTime>2023-09-22T09:27:09</creationTime></creationInfo></arrival><arrival publicID="smi:webservices.ingv.it/fdsnws/event/1/query?arrivalId=2377182381"><phase>S</phase><azimuth>198</azimuth><distance>0.2014</distance><timeResidual>-0.07</timeResidual><timeWeight>48</timeWeight><pickID>smi:webservices.ingv.it/fdsnws/event/1/query?pickId=693304671</pickID><earthModelID>smi:webservices.ingv.it/fdsnws/event/1/query?earthModelId=1</earthModelID><takeoffAngle><value>113</value></takeoffAngle><creationInfo><agencyID>INGV</agencyID><author>BULLETIN-INGV</author><creationTime>2023-09-22T09:27:09</creationTime></creationInfo></arrival><arrival publicID="smi:webservices.ingv.it/fdsnws/event/1/query?arrivalId=2377182341"><phase>S</phase><azimuth>239</azimuth><distance>0.1970</distance><timeResidual>0.19</timeResidual><timeWeight>71</timeWeight><pickID>smi:webservices.ingv.it/fdsnws/event/1/query?pickId=693304651</pickID><earthModelID>smi:webservices.ingv.it/fdsnws/event/1/query?earthModelId=1</earthModelID><takeoffAngle><value>113</value></takeoffAngle><creationInfo><agencyID>INGV</agencyID><author>BULLETIN-INGV</author><creationTime>2023-09-22T09:27:09</creationTime></creationInfo></arrival><arrival publicID="smi:webservices.ingv.it/fdsnws/event/1/query?arrivalId=2377182581"><phase>P</phase><azimuth>271</azimuth><distance>0.4056</distance><timeResidual>0.03</timeResidual><timeWeight>70</timeWeight><pickID>smi:webservices.ingv.it/fdsnws/event/1/query?pickId=693303911</pickID><earthModelID>smi:webservices.ingv.it/fdsnws/event/1/query?earthModelId=1</earthModelID><takeoffAngle><value>50</value></takeoffAngle><creationInfo><agencyID>INGV</agencyID><author>BULLETIN-INGV</author><creationTime>2023-09-22T09:27:09</creationTime></creationInfo></arrival><arrival publicID="smi:webservices.ingv.it/fdsnws/event/1/query?arrivalId=2377182401"><phase>S</phase><azimuth>336</azimuth><distance>0.2185</distance><timeResidual>-0.48</timeResidual><timeWeight>44</timeWeight><pickID>smi:webservices.ingv.it/fdsnws/event/1/query?pickId=693304681</pickID><earthModelID>smi:webservices.ingv.it/fdsnws/event/1/query?earthModelId=1</earthModelID><takeoffAngle><value>111</value></takeoffAngle><creationInfo><agencyID>INGV</agencyID><author>BULLETIN-INGV</author><creationTime>2023-09-22T09:27:09</creationTime></creationInfo></arrival><arrival publicID="smi:webservices.ingv.it/fdsnws/event/1/query?arrivalId=2377182361"><phase>S</phase><azimuth>101</azimuth><distance>0.2041</distance><timeResidual>0.03</timeResidual><timeWeight>49</timeWeight><pickID>smi:webservices.ingv.it/fdsnws/event/1/query?pickId=693304661</pickID><earthModelID>smi:webservices.ingv.it/fdsnws/event/1/query?earthModelId=1</earthModelID><takeoffAngle><value>113</value></takeoffAngle><creationInfo><agencyID>INGV</agencyID><author>BULLETIN-INGV</author><creationTime>2023-09-22T09:27:09</creationTime></creationInfo></arrival><arrival publicID="smi:webservices.ingv.it/fdsnws/event/1/query?arrivalId=2377182601"><phase>P</phase><azimuth>306</azimuth><distance>0.4200</distance><timeResidual>-0.2</timeResidual><timeWeight>90</timeWeight><pickID>smi:webservices.ingv.it/fdsnws/event/1/query?pickId=693303931</pickID><earthModelID>smi:webservices.ingv.it/fdsnws/event/1/query?earthModelId=1</earthModelID><takeoffAngle><value>50</value></takeoffAngle><creationInfo><agencyID>INGV</agencyID><author>BULLETIN-INGV</author><creationTime>2023-09-22T09:27:09</creationTime></creationInfo></arrival><arrival publicID="smi:webservices.ingv.it/fdsnws/event/1/query?arrivalId=2377182421"><phase>S</phase><azimuth>136</azimuth><distance>0.2266</distance><timeResidual>-0.08</timeResidual><timeWeight>72</timeWeight><pickID>smi:webservices.ingv.it/fdsnws/event/1/query?pickId=693304691</pickID><earthModelID>smi:webservices.ingv.it/fdsnws/event/1/query?earthModelId=1</earthModelID><takeoffAngle><value>111</value></takeoffAngle><creationInfo><agencyID>INGV</agencyID><author>BULLETIN-INGV</author><creationTime>2023-09-22T09:27:09</creationTime></creationInfo></arrival><arrival publicID="smi:webservices.ingv.it/fdsnws/event/1/query?arrivalId=2377182561"><phase>P</phase><azimuth>116</azimuth><distance>0.3930</distance><timeResidual>-0.33</timeResidual><timeWeight>66</timeWeight><pickID>smi:webservices.ingv.it/fdsnws/event/1/query?pickId=693303891</pickID><earthModelID>smi:webservices.ingv.it/fdsnws/event/1/query?earthModelId=1</earthModelID><takeoffAngle><value>50</value></takeoffAngle><creationInfo><agencyID>INGV</agencyID><author>BULLETIN-INGV</author><creationTime>2023-09-22T09:27:09</creationTime></creationInfo></arrival><arrival publicID="smi:webservices.ingv.it/fdsnws/event/1/query?arrivalId=2377182301"><phase>S</phase><azimuth>55</azimuth><distance>0.1826</distance><timeResidual>-0.19</timeResidual><timeWeight>71</timeWeight><pickID>smi:webservices.ingv.it/fdsnws/event/1/query?pickId=693304631</pickID><earthModelID>smi:webservices.ingv.it/fdsnws/event/1/query?earthModelId=1</earthModelID><takeoffAngle><value>115</value></takeoffAngle><creationInfo><agencyID>INGV</agencyID><author>BULLETIN-INGV</author><creationTime>2023-09-22T09:27:09</creationTime></creationInfo></arrival><arrival publicID="smi:webse