<?xml version="1.0" encoding="US-ASCII" standalone="yes"?>
<q:quakeml xmlns:q="http://quakeml.org/xmlns/quakeml/1.2" xmlns="http://quakeml.org/xmlns/bed/1.2" xmlns:ingv="http://webservices.ingv.it/">
  <eventParameters publicID="smi:webservices.ingv.it/fdsnws/event/1/query">
    <event publicID="smi:webservices.ingv.it/fdsnws/event/1/query?eventId=37710741">
      <type>earthquake</type>
      <description>
        <type>region name</type>
        <text>5 km W Langhirano (PR)</text>
      </description>
      <preferredMagnitudeID>smi:webservices.ingv.it/fdsnws/event/1/query?magnitudeId=135233531</preferredMagnitudeID>
      <preferredOriginID>smi:webservices.ingv.it/fdsnws/event/1/query?originId=125544601</preferredOriginID>
      <creationInfo>
        <agencyID>INGV</agencyID>
        <author>hew10_mole#MOD_EQASSEMBLE</author>
        <creationTime>2024-02-25T18:59:50</creationTime>
        <ingv:id_locator>556291</ingv:id_locator>
      </creationInfo>
      <origin publicID="smi:webservices.ingv.it/fdsnws/event/1/query?originId=125544381">
        <evaluationMode>automatic</evaluationMode>
        <type>hypocenter</type>
        <time>
          <value>2024-02-25T18:59:28.090000</value>
        </time>
        <latitude>
          <value>44.6255</value>
        </latitude>
        <longitude>
          <value>10.258333</value>
        </longitude>
        <depth>
          <value>10960</value>
        </depth>
        <depthType>from location</depthType>
        <originUncertainty>
          <preferredDescription>uncertainty ellipse</preferredDescription>
          <horizontalUncertainty>1440.0</horizontalUncertainty>
          <minHorizontalUncertainty>903</minHorizontalUncertainty>
          <maxHorizontalUncertainty>1440</maxHorizontalUncertainty>
          <azimuthMaxHorizontalUncertainty>262</azimuthMaxHorizontalUncertainty>
          <confidenceLevel>68</confidenceLevel>
        </originUncertainty>
        <quality>
          <azimuthalGap>27</azimuthalGap>
          <associatedPhaseCount>112</associatedPhaseCount>
          <usedPhaseCount>112</usedPhaseCount>
          <standardError>1.33</standardError>
          <minimumDistance>0.05936</minimumDistance>
          <maximumDistance>6.08121</maximumDistance>
          <associatedStationCount>95</associatedStationCount>
          <usedStationCount>95</usedStationCount>
        </quality>
        <evaluationStatus>preliminary</evaluationStatus>
        <methodID>smi:webservices.ingv.it/fdsnws/event/1/query?methodId=3</methodID>
        <earthModelID>smi:webservices.ingv.it/fdsnws/event/1/query?earthModelId=9</earthModelID>
        <creationInfo>
          <agencyID>INGV</agencyID>
          <author>hew10_mole#MOD_EQASSEMBLE</author>
          <version>2</version>
          <creationTime>2024-02-25T19:02:15</creationTime>
          <ingv:quality>CA</ingv:quality>
        </creationInfo>
        <arrival publicID="smi:webservices.ingv.it/fdsnws/event/1/query?arrivalId=2444375991">
          <phase>Pn</phase>
          <azimuth>135</azimuth>
          <distance>6.0812</distance>
          <timeResidual>4.33</timeResidual>
          <timeWeight>0</timeWeight>
          <pickID>smi:webservices.ingv.it/fdsnws/event/1/query?pickId=717465791</pickID>
          <earthModelID>smi:webservices.ingv.it/fdsnws/event/1/query?earthModelId=9</earthModelID>
          <takeoffAngle>
            <value>47</value>
          </takeoffAngle>
          <creationInfo>
            <agencyID>INGV </agencyID>
            <author>hew10_mole#MOD_EQASSEMBLE</author>
            <creationTime>2024-02-25T19:02:16</creationTime>
          </creationInfo>
        </arrival>
        <arrival publicID="smi:webservices.ingv.it/fdsnws/event/1/query?arrivalId=2444375911">
          <phase>Sg</phase>
          <azimuth>128</azimuth>
          <distance>2.9435</distance>
          <timeResidual>8.36</timeResidual>
          <timeWeight>0</timeWeight>
          <pickID>smi:webservices.ingv.it/fdsnws/event/1/query?pickId=717465711</pickID>
          <earthModelID>smi:webservices.ingv.it/fdsnws/event/1/query?earthModelId=9</earthModelID>
          <takeoffAngle>
            <value>47</value>
          </takeoffAngle>
          <creationInfo>
            <agencyID>INGV </agencyID>
            <author>hew10_mole#MOD_EQASSEMBLE</author>
            <creationTime>2024-02-25T19:02:16</creationTime>
          </creationInfo>
        </arrival>
        <arrival publicID="smi:webservices.ingv.it/fdsnws/event/1/query?arrivalId=2444375871">
          <phase>Sg</phase>
          <azimuth>55</azimuth>
          <distance>2.8428</distance>
          <timeResidual>8.08</timeResidual>
          <timeWeight>0</timeWeight>
          <pickID>smi:webservices.ingv.it/fdsnws/event/1/query?pickId=717465671</pickID>
          <earthModelID>smi:webservices.ingv.it/fdsnws/event/1/query?earthModelId=9</earthModelID>
          <takeoffAngle>
            <value>47</value>
          </takeoffAngle>
          <creationInfo>
            <agencyID>INGV </agencyID>
            <author>hew10_mole#MOD_EQASSEMBLE</author>
            <creationTime>2024-02-25T19:02:16</creationTime>
          </creationInfo>
        </arrival>
        <arrival publicID="smi:webservices.ingv.it/fdsnws/event/1/query?arrivalId=2444375761">
          <phase>Sn</phase>
          <azimuth>59</azimuth>
          <distance>2.7429</distance>
          <timeResidual>7.2</timeResidual>
          <timeWeight>0</timeWeight>
          <pickID>smi:webservices.ingv.it/fdsnws/event/1/query?pickId=717465561</pickID>
          <earthModelID>smi:webservices.ingv.it/fdsnws/event/1/query?earthModelId=9</earthModelID>
          <takeoffAngle>
            <value>47</value>
          </takeoffAngle>
          <creationInfo>
            <agencyID>INGV </agencyID>
            <author>hew10_mole#MOD_EQASSEMBLE</author>
            <creationTime>2024-02-25T19:02:15</creationTime>
          </creationInfo>
        </arrival>
        <arrival publicID="smi:webservices.ingv.it/fdsnws/event/1/query?arrivalId=2444375691">
          <phase>Sg</phase>
          <azimuth>150</azimuth>
          <distance>2.7106</distance>
          <timeResidual>7.4</timeResidual>
          <timeWeight>0</timeWeight>
          <pickID>smi:webservices.ingv.it/fdsnws/event/1/query?pickId=717465491</pickID>
          <earthModelID>smi:webservices.ingv.it/fdsnws/event/1/query?earthModelId=9</earthModelID>
          <takeoffAngle>
            <value>47</value>
          </takeoffAngle>
          <creationInfo>
            <agencyID>INGV </agencyID>
            <author>hew10_mole#MOD_EQASSEMBLE</author>
            <creationTime>2024-02-25T19:02:15</creationTime>
          </creationInfo>
        </arrival>
        <arrival publicID="smi:webservices.ingv.it/fdsnws/event/1/query?arrivalId=2444375671">
          <phase>Sn</phase>
          <azimuth>65</azimuth>
          <distance>2.7052</distance>
          <timeResidual>6.54</timeResidual>
          <timeWeight>0</timeWeight>
          <pickID>smi:webservices.ingv.it/fdsnws/event/1/query?pickId=717465481</pickID>
          <earthModelID>smi:webservices.ingv.it/fdsnws/event/1/query?earthModelId=9</earthModelID>
          <takeoffAngle>
            <value>47</value>
          </takeoffAngle>
          <creationInfo>
            <agencyID>INGV </agencyID>
            <author>hew10_mole#MOD_EQASSEMBLE</author>
            <creationTime>2024-02-25T19:02:15</creationTime>
          </creationInfo>
        </arrival>
        <arrival publicID="smi:webservices.ingv.it/fdsnws/event/1/query?arrivalId=2444375971">
          <phase>Pg</phase>
          <azimuth>127</azimuth>
          <distance>4.4211</distance>
          <timeResidual>17.120001</timeResidual>
          <timeWeight>0</timeWeight>
          <pickID>smi:webservices.ingv.it/fdsnws/event/1/query?pickId=717465771</pickID>
          <earthModelID>smi:webservices.ingv.it/fdsnws/event/1/query?earthModelId=9</earthModelID>
          <takeoffAngle>
            <value>47</value>
          </takeoffAngle>
          <creationInfo>
            <agencyID>INGV </agencyID>
            <author>hew10_mole#MOD_EQASSEMBLE</author>
            <creationTime>2024-02-25T19:02:16</creationTime>
          </creationInfo>
        </arrival>
        <arrival publicID="smi:webservices.ingv.it/fdsnws/event/1/query?arrivalId=2444375661">
          <phase>Sg</phase>
          <azimuth>51</azimuth>
          <distance>2.6755</distance>
          <timeResidual>6.95</timeResidual>
          <timeWeight>0</timeWeight>
          <pickID>smi:webservices.ingv.it/fdsnws/event/1/query?pickId=717465471</pickID>
          <earthModelID>smi:webservices.ingv.it/fdsnws/event/1/query?earthModelId=9</earthModelID>
          <takeoffAngle>
            <value>47</value>
          </takeoffAngle>
          <creationInfo>
            <agencyID>INGV </agencyID>
            <author>hew10_mole#MOD_EQASSEMBLE</author>
            <creationTime>2024-02-25T19:02:15</creationTime>
          </creationInfo>
        </arrival>
        <arrival publicID="smi:webservices.ingv.it/fdsnws/event/1/query?arrivalId=2444375581">
          <phase>Sg</phase>
          <azimuth>48</azimuth>
          <distance>2.4776</distance>
          <timeResidual>7.71</timeResidual>
          <timeWeight>0</timeWeight>
          <pickID>smi:webservices.ingv.it/fdsnws/event/1/query?pickId=717465411</pickID>
          <earthModelID>smi:webservices.ingv.it/fdsnws/event/1/query?earthModelId=9</earthModelID>
          <takeoffAngle>
            <value>47</value>
          </takeoffAngle>
          <creationInfo>
            <agencyID>INGV </agencyID>
            <author>hew10_mole#MOD_EQASSEMBLE</author>
            <creationTime>2024-02-25T19:02:15</creationTime>
          </creationInfo>
        </arrival>
        <arrival publicID="smi:webservices.ingv.it/fdsnws/event/1/query?arrivalId=2444375541">
          <phase>Sg</phase>
          <azimuth>18</azimuth>
          <distance>2.4390</distance>
          <timeResidual>5.2</timeResidual>
          <timeWeight>0.07</timeWeight>
          <pickID>smi:webservices.ingv.it/fdsnws/event/1/query?pickId=717465391</pickID>
          <earthModelID>smi:webservices.ingv.it/fdsnws/event/1/query?earthModelId=9</earthModelID>
          <takeoffAngle>
            <value>47</value>
          </takeoffAngle>
          <creationInfo>
            <agencyID>INGV </agencyID>
            <author>hew10_mole#MOD_EQASSEMBLE</author>
            <creationTime>2024-02-25T19:02:15</creationTime>
          </creationInfo>
        </arrival>
        <arrival publicID="smi:webservices.ingv.it/fdsnws/event/1/query?arrivalId=2444375341">
          <phase>Sg</phase>
          <azimuth>47</azimuth>
          <distance>2.1125</distance>
          <timeResidual>6.6</timeResidual>
          <timeWeight>0</timeWeight>
          <pickID>smi:webservices.ingv.it/fdsnws/event/1/query?pickId=717465291</pickID>
          <earthModelID>smi:webservices.ingv.it/fdsnws/event/1/query?earthModelId=9</earthModelID>
          <takeoffAngle>
            <value>47</value>
          </takeoffAngle>
          <creationInfo>
            <agencyID>INGV </agencyID>
            <author>hew10_mole#MOD_EQASSEMBLE</author>
            <creationTime>2024-02-25T19:02:15</creationTime>
          </creationInfo>
        </arrival>
        <arrival publicID="smi:webservices.ingv.it/fdsnws/event/1/query?arrivalId=2444375381">
          <phase>Sg</phase>
          <azimuth>330</azimuth>
          <distance>2.1449</distance>
          <timeResidual>5.08</timeResidual>
          <timeWeight>0.06</timeWeight>
          <pickID>smi:webservices.ingv.it/fdsnws/event/1/query?pickId=717465311</pickID>
          <earthModelID>smi:webservices.ingv.it/fdsnws/event/1/query?earthModelId=9</earthModelID>
          <takeoffAngle>
            <value>47</value>
          </takeoffAngle>
          <creationInfo>
            <agencyID>INGV </agencyID>
            <author>hew10_mole#MOD_EQASSEMBLE</author>
            <creationTime>2024-02-25T19:02:15</creationTime>
          </creationInfo>
        </arrival>
        <arrival publicID="smi:webservices.ingv.it/fdsnws/event/1/query?arrivalId=2444375951">
          <phase>Pn</phase>
          <azimuth>187</azimuth>
          <distance>4.3302</distance>
          <timeResidual>-0.01</timeResidual>
          <timeWeight>0.31</timeWeight>
          <pickID>smi:webservices.ingv.it/fdsnws/event/1/query?pickId=717465751</pickID>
          <earthModelID>smi:webservices.ingv.it/fdsnws/event/1/query?earthModelId=9</earthModelID>
          <takeoffAngle>
            <value>47</value>
          </takeoffAngle>
          <creationInfo>
            <agencyID>INGV </agencyID>
            <author>hew10_mole#MOD_EQASSEMBLE</author>
            <creationTime>2024-02-25T19:02:16</creationTime>
          </creationInfo>
        </arrival>
        <arrival publicID="smi:webservices.ingv.it/fdsnws/event/1/query?arrivalId=2444375001">
          <phase>Sn</phase>
          <azimuth>34</azimuth>
          <distance>1.7276</distance>
          <timeResidual>-1.43</timeResidual>
          <timeWeight>0.99</timeWeight>
          <pickID>smi:webservices.ingv.it/fdsnws/event/1/query?pickId=717465091</pickID>
          <earthModelID>smi:webservices.ingv.it/fdsnws/event/1/query?earthModelId=9</earthModelID>
          <takeoffAngle>
            <value>47</value>
          </takeoffAngle>
          <creationInfo>
            <agencyID>INGV </agencyID>
            <author>hew10_mole#MOD_EQASSEMBLE</author>
            <creationTime>2024-02-25T19:02:15</creationTime>
          </creationInfo>
        </arrival>
        <arrival publicID="smi:webservices.ingv.it/fdsnws/event/1/query?arrivalId=2444375931">
          <phase>Pn</phase>
          <azimuth>48</azimuth>
          <distance>2.9857</distance>
          <timeResidual>0.44</timeResidual>
          <timeWeight>0.35</timeWeight>
          <pickID>smi:webservices.ingv.it/fdsnws/event/1/query?pickId=717465731</pickID>
          <earthModelID>smi:webservices.ingv.it/fdsnws/event/1/query?earthModelId=9</earthModelID>
          <takeoffAngle>
            <value>47</value>
          </takeoffAngle>
          <creationInfo>
            <agencyID>INGV </agencyID>
            <author>hew10_mole#MOD_EQASSEMBLE</author>
            <creationTime>2024-02-25T19:02:16</creationTime>
          </creationInfo>
        </arrival>
        <arrival publicID="smi:webservices.ingv.it/fdsnws/event/1/query?arrivalId=2444375821">
          <phase>Pn</phase>
          <azimuth>126</azimuth>
          <distance>2.8131</distance>
          <timeResidual>2.14</timeResidual>
          <timeWeight>0.38</timeWeight>
          <pickID>smi:webservices.ingv.it/fdsnws/event/1/query?pickId=717465621</pickID>
          <earthModelID>smi:webservices.ingv.it/fdsnws/event/1/query?earthModelId=9</earthModelID>
          <takeoffAngle>
            <value>47</value>
          </takeoffAngle>
          <creationInfo>
            <agencyID>INGV </agencyID>
            <author>hew10_mole#MOD_EQASSEMBLE</author>
            <creationTime>2024-02-25T19:02:16</creationTime>
          </creationInfo>
        </arrival>
        <arrival publicID="smi:webservices.ingv.it/fdsnws/event/1/query?arrivalId=2444375891">
          <phase>Pn</phase>
          <azimuth>128</azimuth>
          <distance>2.9435</distance>
          <timeResidual>0.48</timeResidual>
          <timeWeight>0.72</timeWeight>
          <pickID>smi:webservices.ingv.it/fdsnws/event/1/query?pickId=717465691</pickID>
          <earthModelID>smi:webservices.ingv.it/fdsnws/event/1/query?earthModelId=9</earthModelID>
          <takeoffAngle>
            <value>47</value>
          </takeoffAngle>
          <creationInfo>
            <agencyID>INGV </agencyID>
            <author>hew10_mole#MOD_EQASSEMBLE</author>
            <creationTime>2024-02-25T19:02:16</creationTime>
          </creationInfo>
        </arrival>
        <arrival publicID="smi:webservices.ingv.it/fdsnws/event/1/query?arrivalId=2444375711">
          <phase>Pn</phase>
          <azimuth>123</azimuth>
          <distance>2.7186</distance>
          <timeResidual>2.28</timeResidual>
          <timeWeight>0.78</timeWeight>
          <pickID>smi:webservices.ingv.it/fdsnws/event/1/query?pickId=717465511</pickID>
          <earthModelID>smi:webservices.ingv.it/fdsnws/event/1/query?earthModelId=9</earthModelID>
          <takeoffAngle>
            <value>47</value>
          </takeoffAngle>
          <creationInfo>
            <agencyID>INGV </agencyID>
            <author>hew10_mole#MOD_EQASSEMBLE</author>
            <creationTime>2024-02-25T19:02:15</creationTime>
          </creationInfo>
        </arrival>
        <arrival publicID="smi:webservices.ingv.it/fdsnws/event/1/query?arrivalId=2444374921">
          <phase>S</phase>
          <azimuth>7</azimuth>
          <distance>1.4398</distance>
          <timeResidual>-0.59</timeResidual>
          <timeWeight>1.54</timeWeight>
          <pickID>smi:webservices.ingv.it/fdsnws/event/1/query?pickId=717465011</pickID>
          <earthModelID>smi:webservices.ingv.it/fdsnws/event/1/query?earthModelId=9</earthModelID>
          <takeoffAngle>
            <value>47</value>
          </takeoffAngle>
          <creationInfo>
            <agencyID>INGV </agencyID>
            <author>hew10_mole#MOD_EQASSEMBLE</author>
            <creationTime>2024-02-25T19:02:15</creationTime>
          </creationInfo>
        </arrival>
        <arrival publicID="smi:webservices.ingv.it/fdsnws/event/1/query?arrivalId=2444375781">
          <phase>Pn</phase>
          <azimuth>45</azimuth>
          <distance>2.7951</distance>
          <timeResidual>0.73</timeResidual>
          <timeWeight>0.38</timeWeight>
          <pickID>smi:webservices.ingv.it/fdsnws/event/1/query?pickId=717465581</pickID>
          <earthModelID>smi:webservices.ingv.it/fdsnws/event/1/query?earthModelId=9</earthModelID>
          <takeoffAngle>
            <value>47</value>
          </takeoffAngle>
          <creationInfo>
            <agencyID>INGV </agencyID>
            <author>hew10_mole#MOD_EQASSEMBLE</author>
            <creationTime>2024-02-25T19:02:16</creationTime>
          </creationInfo>
        </arrival>
        <arrival publicID="smi:webservices.ingv.it/fdsnws/event/1/query?arrivalId=2444375801">
          <phase>Pn</phase>
          <azimuth>19</azimuth>
          <distance>2.8068</distance>
          <timeResidual>1.06</timeResidual>
          <timeWeight>0.38</timeWeight>
          <pickID>smi:webservices.ingv.it/fdsnws/event/1/query?pickId=717465601</pickID>
          <earthModelID>smi:webservices.ingv.it/fdsnws/event/1/query?earthModelId=9</earthModelID>
          <takeoffAngle>
            <value>47</value>
          </takeoffAngle>
          <creationInfo>
            <agencyID>INGV </agencyID>
            <author>hew10_mole#MOD_EQASSEMBLE</author>
            <creationTime>2024-02-25T19:02:16</creationTime>
          </creationInfo>
        </arrival>
        <arrival publicID="smi:webservices.ingv.it/fdsnws/event/1/query?arrivalId=2444375621">
          <phase>Pn</phase>
          <azimuth>124</azimuth>
          <distance>2.6242</distance>
          <timeResidual>2.02</timeResidual>
          <timeWeight>0.81</timeWeight>
          <pickID>smi:webservices.ingv.it/fdsnws/event/1/query?pickId=717465441</pickID>
          <earthModelID>smi:webservices.ingv.it/fdsnws/event/1/query?earthModelId=9</earthModelID>
          <takeoffAngle>
            <value>47</value>
          </takeoffAngle>
          <creationInfo>
            <agencyID>INGV </agencyID>
            <author>hew10_mole#MOD_EQASSEMBLE</author>
            <creationTime>2024-02-25T19:02:15</creationTime>
          </creationInfo>
        </arrival>
        <arrival publicID="smi:webservices.ingv.it/fdsnws/event/1/query?arrivalId=2444375841">
          <phase>Pn</phase>
          <azimuth>55</azimuth>
